[{"OBJECT_NAME":"STARLINK-5499","OBJECT_ID":"2023-028Z","EPOCH":"2026-03-09T20:22:13.301184","MEAN_MOTION":14.98331604,"ECCENTRICITY":0.00025139,"INCLINATION":70.0001,"RA_OF_ASC_NODE":224.1861,"ARG_OF_PERICENTER":277.4306,"MEAN_ANOMALY":82.6567,"EPHEMERIS_TYPE":0,"CLASSIFICATION_TYPE":"U","NORAD_CAT_ID":55764,"ELEMENT_SET_NO":999,"REV_AT_EPOCH":16655,"BSTAR":1.602232e-6,"MEAN_MOTION_DOT":-7.4e-7,"MEAN_MOTION_DDOT":0},{"OBJECT_NAME":"ELECTRON KICK STAGE R\/B","OBJECT_ID":"2026-015D","EPOCH":"2026-03-09T15:02:18.646944","MEAN_MOTION":14.71860187,"ECCENTRICITY":0.0516686,"INCLINATION":89.0447,"RA_OF_ASC_NODE":277.927,"ARG_OF_PERICENTER":172.5816,"MEAN_ANOMALY":188.3451,"EPHEMERIS_TYPE":0,"CLASSIFICATION_TYPE":"U","NORAD_CAT_ID":67559,"ELEMENT_SET_NO":999,"REV_AT_EPOCH":678,"BSTAR":0.0016475,"MEAN_MOTION_DOT":0.00103651,"MEAN_MOTION_DDOT":8.2583e-7}]
